[{"OBJECT_NAME":"UNKNOWN","OBJECT_ID":"","EPOCH":"2026-03-02T00:48:23.203296","MEAN_MOTION":11.92242722,"ECCENTRICITY":0.03970699,"INCLINATION":103.3399,"RA_OF_ASC_NODE":181.3519,"ARG_OF_PERICENTER":179.7312,"MEAN_ANOMALY":180.3996,"EPHEMERIS_TYPE":0,"CLASSIFICATION_TYPE":"U","NORAD_CAT_ID":270026,"ELEMENT_SET_NO":999,"REV_AT_EPOCH":27229,"BSTAR":0.0054509869,"MEAN_MOTION_DOT":4.55e-6,"MEAN_MOTION_DDOT":0},{"OBJECT_NAME":"UNKNOWN","OBJECT_ID":"","EPOCH":"2026-02-14T21:08:55.260096","MEAN_MOTION":13.9647317,"ECCENTRICITY":0.00075826,"INCLINATION":82.5191,"RA_OF_ASC_NODE":107.1781,"ARG_OF_PERICENTER":216.1227,"MEAN_ANOMALY":143.9429,"EPHEMERIS_TYPE":0,"CLASSIFICATION_TYPE":"U","NORAD_CAT_ID":270029,"ELEMENT_SET_NO":999,"REV_AT_EPOCH":31583,"BSTAR":0.0014524746,"MEAN_MOTION_DOT":2.021e-5,"MEAN_MOTION_DDOT":0},{"OBJECT_NAME":"UNKNOWN","OBJECT_ID":"","EPOCH":"2026-03-08T02:11:43.696608","MEAN_MOTION":13.02127223,"ECCENTRICITY":0.0036543,"INCLINATION":90.2732,"RA_OF_ASC_NODE":19.113,"ARG_OF_PERICENTER":190.0572,"MEAN_ANOMALY":169.9824,"EPHEMERIS_TYPE":0,"CLASSIFICATION_TYPE":"U","NORAD_CAT_ID":270030,"ELEMENT_SET_NO":999,"REV_AT_EPOCH":29817,"BSTAR":0.0040154336,"MEAN_MOTION_DOT":1.256e-5,"MEAN_MOTION_DDOT":0},{"OBJECT_NAME":"UNKNOWN","OBJECT_ID":"","EPOCH":"2026-02-27T15:03:55.437408","MEAN_MOTION":13.00221685,"ECCENTRICITY":0.00063928,"INCLINATION":90.2622,"RA_OF_ASC_NODE":18.2852,"ARG_OF_PERICENTER":267.1323,"MEAN_ANOMALY":92.9067,"EPHEMERIS_TYPE":0,"CLASSIFICATION_TYPE":"U","NORAD_CAT_ID":270031,"ELEMENT_SET_NO":999,"REV_AT_EPOCH":29646,"BSTAR":0.0019609669,"MEAN_MOTION_DOT":5.99e-6,"MEAN_MOTION_DDOT":0},{"OBJECT_NAME":"UNKNOWN","OBJECT_ID":"","EPOCH":"2026-03-02T16:14:56.414112","MEAN_MOTION":11.80658539,"ECCENTRICITY":0.0244145,"INCLINATION":81.3011,"RA_OF_ASC_NODE":215.7899,"ARG_OF_PERICENTER":25.1962,"MEAN_ANOMALY":336.0759,"EPHEMERIS_TYPE":0,"CLASSIFICATION_TYPE":"U","NORAD_CAT_ID":270032,"ELEMENT_SET_NO":999,"REV_AT_EPOCH":26989,"BSTAR":0.003309903,"MEAN_MOTION_DOT":2.36e-6,"MEAN_MOTION_DDOT":0},{"OBJECT_NAME":"UNKNOWN","OBJECT_ID":"","EPOCH":"2026-03-10T11:42:42.139008","MEAN_MOTION":13.72180536,"ECCENTRICITY":0.0574256,"INCLINATION":81.9718,"RA_OF_ASC_NODE":162.7383,"ARG_OF_PERICENTER":205.2399,"MEAN_ANOMALY":151.9663,"EPHEMERIS_TYPE":0,"CLASSIFICATION_TYPE":"U","NORAD_CAT_ID":270033,"ELEMENT_SET_NO":999,"REV_AT_EPOCH":31406,"BSTAR":0.000750871,"MEAN_MOTION_DOT":2.291e-5,"MEAN_MOTION_DDOT":0},{"OBJECT_NAME":"UNKNOWN","OBJECT_ID":"","EPOCH":"2026-03-13T23:40:32.608992","MEAN_MOTION":13.26771876,"ECCENTRICITY":0.06283114,"INCLINATION":99.3482,"RA_OF_ASC_NODE":343.3665,"ARG_OF_PERICENTER":62.7395,"MEAN_ANOMALY":303.63,"EPHEMERIS_TYPE":0,"CLASSIFICATION_TYPE":"U","NORAD_CAT_ID":270034,"ELEMENT_SET_NO":999,"REV_AT_EPOCH":9068,"BSTAR":0.0022067338,"MEAN_MOTION_DOT":2.867e-5,"MEAN_MOTION_DDOT":0},{"OBJECT_NAME":"UNKNOWN","OBJECT_ID":"","EPOCH":"2026-03-13T19:59:50.612352","MEAN_MOTION":13.76227783,"ECCENTRICITY":0.01071501,"INCLINATION":100.3734,"RA_OF_ASC_NODE":273.415,"ARG_OF_PERICENTER":243.447,"MEAN_ANOMALY":115.5662,"EPHEMERIS_TYPE":0,"CLASSIFICATION_TYPE":"U","NORAD_CAT_ID":270036,"ELEMENT_SET_NO":999,"REV_AT_EPOCH":31550,"BSTAR":0.0013466539,"MEAN_MOTION_DOT":1.316e-5,"MEAN_MOTION_DDOT":0},{"OBJECT_NAME":"UNKNOWN","OBJECT_ID":"","EPOCH":"2026-03-11T13:54:26.146656","MEAN_MOTION":12.8187444,"ECCENTRICITY":0.02579009,"INCLINATION":102.8393,"RA_OF_ASC_NODE":191.5753,"ARG_OF_PERICENTER":222.5347,"MEAN_ANOMALY":135.5499,"EPHEMERIS_TYPE":0,"CLASSIFICATION_TYPE":"U","NORAD_CAT_ID":270038,"ELEMENT_SET_NO":999,"REV_AT_EPOCH":29177,"BSTAR":0.049946249,"MEAN_MOTION_DOT":0.00013398,"MEAN_MOTION_DDOT":0},{"OBJECT_NAME":"UNKNOWN","OBJECT_ID":"","EPOCH":"2026-03-14T09:33:57.093408","MEAN_MOTION":14.0505468,"ECCENTRICITY":0.00109236,"INCLINATION":82.5521,"RA_OF_ASC_NODE":323.3545,"ARG_OF_PERICENTER":94.5374,"MEAN_ANOMALY":265.7046,"EPHEMERIS_TYPE":0,"CLASSIFICATION_TYPE":"U","NORAD_CAT_ID":270039,"ELEMENT_SET_NO":999,"REV_AT_EPOCH":32159,"BSTAR":0.0012113111,"MEAN_MOTION_DOT":1.967e-5,"MEAN_MOTION_DDOT":0},{"OBJECT_NAME":"UNKNOWN","OBJECT_ID":"","EPOCH":"2026-03-12T13:41:23.709984","MEAN_MOTION":13.96594079,"ECCENTRICITY":0.02213955,"INCLINATION":98.4904,"RA_OF_ASC_NODE":178.057,"ARG_OF_PERICENTER":125.3408,"MEAN_ANOMALY":236.8673,"EPHEMERIS_TYPE":0,"CLASSIFICATION_TYPE":"U","NORAD_CAT_ID":270041,"ELEMENT_SET_NO":999,"REV_AT_EPOCH":31957,"BSTAR":0.001525104,"MEAN_MOTION_DOT":2.559e-5,"MEAN_MOTION_DDOT":0},{"OBJECT_NAME":"UNKNOWN","OBJECT_ID":"","EPOCH":"2026-02-27T18:05:29.432832","MEAN_MOTION":12.26204517,"ECCENTRICITY":0.01351634,"INCLINATION":74.0195,"RA_OF_ASC_NODE":78.1399,"ARG_OF_PERICENTER":44.7942,"MEAN_ANOMALY":316.3915,"EPHEMERIS_TYPE":0,"CLASSIFICATION_TYPE":"U","NORAD_CAT_ID":270042,"ELEMENT_SET_NO":999,"REV_AT_EPOCH":28008,"BSTAR":0.00032123428,"MEAN_MOTION_DOT":2.3e-7,"MEAN_MOTION_DDOT":0},{"OBJECT_NAME":"UNKNOWN","OBJECT_ID":"","EPOCH":"2026-02-24T09:32:01.884192","MEAN_MOTION":13.92519722,"ECCENTRICITY":0.02502429,"INCLINATION":98.9053,"RA_OF_ASC_NODE":112.6709,"ARG_OF_PERICENTER":102.7559,"MEAN_ANOMALY":260.1693,"EPHEMERIS_TYPE":0,"CLASSIFICATION_TYPE":"U","NORAD_CAT_ID":270043,"ELEMENT_SET_NO":999,"REV_AT_EPOCH":31578,"BSTAR":0.00075485599,"MEAN_MOTION_DOT":1.217e-5,"MEAN_MOTION_DDOT":0},{"OBJECT_NAME":"UNKNOWN","OBJECT_ID":"","EPOCH":"2026-03-08T14:16:57.895392","MEAN_MOTION":13.00636245,"ECCENTRICITY":0.00140041,"INCLINATION":90.2555,"RA_OF_ASC_NODE":11.171,"ARG_OF_PERICENTER":120.0797,"MEAN_ANOMALY":240.1716,"EPHEMERIS_TYPE":0,"CLASSIFICATION_TYPE":"U","NORAD_CAT_ID":270044,"ELEMENT_SET_NO":999,"REV_AT_EPOCH":29773,"BSTAR":0.0044900003,"MEAN_MOTION_DOT":1.371e-5,"MEAN_MOTION_DDOT":0},{"OBJECT_NAME":"UNKNOWN","OBJECT_ID":"","EPOCH":"2026-03-08T13:16:56.962848","MEAN_MOTION":12.96433182,"ECCENTRICITY":0.00410577,"INCLINATION":90.2563,"RA_OF_ASC_NODE":11.1419,"ARG_OF_PERICENTER":38.3919,"MEAN_ANOMALY":322.011,"EPHEMERIS_TYPE":0,"CLASSIFICATION_TYPE":"U","NORAD_CAT_ID":270045,"ELEMENT_SET_NO":999,"REV_AT_EPOCH":29711,"BSTAR":-0.00093099236,"MEAN_MOTION_DOT":-2.6e-6,"MEAN_MOTION_DDOT":0},{"OBJECT_NAME":"UNKNOWN","OBJECT_ID":"","EPOCH":"2026-02-27T22:25:43.727232","MEAN_MOTION":12.62581803,"ECCENTRICITY":0.0058553,"INCLINATION":73.9952,"RA_OF_ASC_NODE":301.3852,"ARG_OF_PERICENTER":352.5594,"MEAN_ANOMALY":7.4589,"EPHEMERIS_TYPE":0,"CLASSIFICATION_TYPE":"U","NORAD_CAT_ID":270046,"ELEMENT_SET_NO":999,"REV_AT_EPOCH":28819,"BSTAR":0.00024779954,"MEAN_MOTION_DOT":2.8e-7,"MEAN_MOTION_DDOT":0},{"OBJECT_NAME":"UNKNOWN","OBJECT_ID":"","EPOCH":"2026-03-14T15:14:42.438624","MEAN_MOTION":13.77850685,"ECCENTRICITY":0.00341404,"INCLINATION":82.9706,"RA_OF_ASC_NODE":206.9889,"ARG_OF_PERICENTER":122.6776,"MEAN_ANOMALY":237.7682,"EPHEMERIS_TYPE":0,"CLASSIFICATION_TYPE":"U","NORAD_CAT_ID":270053,"ELEMENT_SET_NO":999,"REV_AT_EPOCH":31623,"BSTAR":0.00046515489,"MEAN_MOTION_DOT":4.83e-6,"MEAN_MOTION_DDOT":0},{"OBJECT_NAME":"UNKNOWN","OBJECT_ID":"","EPOCH":"2026-03-12T00:13:10.863264","MEAN_MOTION":12.98383774,"ECCENTRICITY":0.00284687,"INCLINATION":90.2122,"RA_OF_ASC_NODE":345.6582,"ARG_OF_PERICENTER":273.3148,"MEAN_ANOMALY":86.4716,"EPHEMERIS_TYPE":0,"CLASSIFICATION_TYPE":"U","NORAD_CAT_ID":270054,"ELEMENT_SET_NO":999,"REV_AT_EPOCH":29790,"BSTAR":-0.0037375713,"MEAN_MOTION_DOT":-1.093e-5,"MEAN_MOTION_DDOT":0},{"OBJECT_NAME":"UNKNOWN","OBJECT_ID":"","EPOCH":"2026-03-02T12:36:39.264480","MEAN_MOTION":12.99318369,"ECCENTRICITY":0.00294364,"INCLINATION":90.2515,"RA_OF_ASC_NODE":2.6489,"ARG_OF_PERICENTER":281.9309,"MEAN_ANOMALY":77.8513,"EPHEMERIS_TYPE":0,"CLASSIFICATION_TYPE":"U","NORAD_CAT_ID":270055,"ELEMENT_SET_NO":999,"REV_AT_EPOCH":29696,"BSTAR":0.0015740234,"MEAN_MOTION_DOT":4.77e-6,"MEAN_MOTION_DDOT":0},{"OBJECT_NAME":"UNKNOWN","OBJECT_ID":"","EPOCH":"2026-03-10T18:53:30.684480","MEAN_MOTION":12.97988193,"ECCENTRICITY":0.00275438,"INCLINATION":90.241,"RA_OF_ASC_NODE":3.157,"ARG_OF_PERICENTER":304.1666,"MEAN_ANOMALY":55.6843,"EPHEMERIS_TYPE":0,"CLASSIFICATION_TYPE":"U","NORAD_CAT_ID":270058,"ELEMENT_SET_NO":999,"REV_AT_EPOCH":29777,"BSTAR":0.0020259618,"MEAN_MOTION_DOT":6.0e-6,"MEAN_MOTION_DDOT":0},{"OBJECT_NAME":"UNKNOWN","OBJECT_ID":"","EPOCH":"2026-03-01T21:42:12.522240","MEAN_MOTION":12.23008222,"ECCENTRICITY":0.01299549,"INCLINATION":73.9978,"RA_OF_ASC_NODE":304.8036,"ARG_OF_PERICENTER":284.0299,"MEAN_ANOMALY":74.6318,"EPHEMERIS_TYPE":0,"CLASSIFICATION_TYPE":"U","NORAD_CAT_ID":270059,"ELEMENT_SET_NO":999,"REV_AT_EPOCH":27966,"BSTAR":0.00019178849,"MEAN_MOTION_DOT":6.0e-8,"MEAN_MOTION_DDOT":0},{"OBJECT_NAME":"UNKNOWN","OBJECT_ID":"","EPOCH":"2026-02-26T08:17:12.882336","MEAN_MOTION":13.50848669,"ECCENTRICITY":0.05367509,"INCLINATION":30.1001,"RA_OF_ASC_NODE":80.1719,"ARG_OF_PERICENTER":0.605,"MEAN_ANOMALY":359.51,"EPHEMERIS_TYPE":0,"CLASSIFICATION_TYPE":"U","NORAD_CAT_ID":270060,"ELEMENT_SET_NO":999,"REV_AT_EPOCH":30625,"BSTAR":0.0039896965,"MEAN_MOTION_DOT":6.507e-5,"MEAN_MOTION_DDOT":0},{"OBJECT_NAME":"UNKNOWN","OBJECT_ID":"","EPOCH":"2026-03-14T02:37:15.421728","MEAN_MOTION":14.24291796,"ECCENTRICITY":0.0036198,"INCLINATION":98.8551,"RA_OF_ASC_NODE":26.0448,"ARG_OF_PERICENTER":156.5125,"MEAN_ANOMALY":203.7716,"EPHEMERIS_TYPE":0,"CLASSIFICATION_TYPE":"U","NORAD_CAT_ID":270063,"ELEMENT_SET_NO":999,"REV_AT_EPOCH":32705,"BSTAR":0.00016258619,"MEAN_MOTION_DOT":3.33e-6,"MEAN_MOTION_DDOT":0},{"OBJECT_NAME":"UNKNOWN","OBJECT_ID":"","EPOCH":"2026-03-06T08:17:18.140640","MEAN_MOTION":12.22972953,"ECCENTRICITY":0.01318317,"INCLINATION":74.0018,"RA_OF_ASC_NODE":300.6153,"ARG_OF_PERICENTER":278.6902,"MEAN_ANOMALY":79.922,"EPHEMERIS_TYPE":0,"CLASSIFICATION_TYPE":"U","NORAD_CAT_ID":270065,"ELEMENT_SET_NO":999,"REV_AT_EPOCH":28014,"BSTAR":-1.8840341e-5,"MEAN_MOTION_DOT":-1.8e-7,"MEAN_MOTION_DDOT":0}]
